0 FLOCK 4S 14
1 47528U 21006DU  24003.15588472  .00019981  00000-0  53703-3 0  9993
2 47528  97.3663  66.9882 0006523  90.9311 269.2681 15.37919797164317
0 LEMUR 2 CHANTAL
1 47529U 21006DV  24003.15052063  .00037331  00000-0  83028-3 0  9998
2 47529  97.3596  66.3473 0005090  87.3020 272.8810 15.43550451164339
0 FLOCK 4S 36
1 47530U 21006DW  24003.14160539  .00021658  00000-0  57999-3 0  9990
2 47530  97.3649  66.8615 0006293  98.7114 261.4844 15.38017153164319
0 KEPLER-9 (ARTEMIS)
1 47531U 21006DX  24002.93608895  .00045619  00000-0  10827-2 0  9990
2 47531  97.3656  65.0513 0005388 100.0150 260.1705 15.41556509164158
0 YAOGAN-31 D
1 47532U 21007A   24003.16706802 -.00000016  00000-0  12126-3 0  9993
2 47532  63.4072 284.8959 0096006 356.3572   3.6744 13.45303813143780
0 YAOGAN-31 E
1 47533U 21007B   24003.16712474 -.00000007  00000-0  13634-3 0  9991
2 47533  63.4066 283.9520 0096439 356.4527   3.5804 13.45302903143795
0 YAOGAN-31 F
1 47536U 21007E   24003.16689857  .00000001  00000-0  14904-3 0  9996
2 47536  63.4067 283.9666 0096130 356.4464   3.5868 13.45303028143809
0 LEMUR 2 NOOBNOOB
1 47538U 21006DY  24003.11823255  .00076875  00000-0  13363-2 0  9993
2 47538  97.3643  69.9646 0005770  73.5833 286.6052 15.50528300163557
0 FLOCK 4S 24
1 47539U 21006DZ  24002.70333473  .00021417  00000-0  57532-3 0  9995
2 47539  97.3582  65.9159 0007858  82.0289 278.1847 15.37911824163307
0 FLOCK 4S 20
1 47540U 21006EA  24002.90407322  .00020088  00000-0  54269-3 0  9991
2 47540  97.3646  66.9085 0007701  83.0746 277.1375 15.37750675162405
0 HIBER-4
1 47541U 21006EB  24002.90878906  .00029902  00000-0  83200-3 0  9993
2 47541  97.3528  63.3049 0008039  91.6640 268.5525 15.36750550163198
0 FLOCK 4S 25
1 47542U 21006EC  24003.13055385  .00028513  00000-0  75097-3 0  9990
2 47542  97.3543  66.0950 0007845  90.5157 269.6987 15.38463494162443
0 FLOCK 4S 1
1 47543U 21006ED  24002.87357573  .00024925  00000-0  62392-3 0  9992
2 47543  97.3562  66.1680 0007777  76.5612 283.6500 15.40051280162424
0 FLOCK 4S 30
1 47544U 21006EE  24002.74756096  .00020726  00000-0  55779-3 0  9998
2 47544  97.3570  65.4205 0005816  93.4519 266.7391 15.37875415164258
0 COSMOS 2549
1 47546U 21008A   24003.12434609 -.00000033  00000-0  30761-4 0  9993
2 47546  67.1487   3.7122 0006086 272.4033  87.6355 13.96677425148677
0 STARLINK-1782
1 47548U 21009A   24003.12141612  .00002697  00000-0  19988-3 0  9999
2 47548  53.0558 347.5527 0001694  99.6260 260.4920 15.06402553161474
0 STARLINK-1806
1 47549U 21009B   24003.11772632 -.00000273  00000-0  58368-6 0  9998
2 47549  53.0555 347.5682 0002043 124.4929 235.6254 15.06393078161488
