[{"OBJECT_NAME":"FLOCK 4S-14","OBJECT_ID":"2021-006DU","EPOCH":"2024-01-03T03:44:28.439808","MEAN_MOTION":15.37919797,"ECCENTRICITY":0.0006523,"INCLINATION":97.3663,"RA_OF_ASC_NODE":66.9882,"ARG_OF_PERICENTER":90.9311,"MEAN_ANOMALY":269.2681,"EPHEMERIS_TYPE":0,"CLASSIFICATION_TYPE":"U","NORAD_CAT_ID":47528,"ELEMENT_SET_NO":999,"REV_AT_EPOCH":16431,"BSTAR":0.00053703,"MEAN_MOTION_DOT":0.00019981,"MEAN_MOTION_DDOT":0},{"OBJECT_NAME":"LEMUR-2-CHANTAL","OBJECT_ID":"2021-006DV","EPOCH":"2024-01-03T03:36:44.982432","MEAN_MOTION":15.43550451,"ECCENTRICITY":0.000509,"INCLINATION":97.3596,"RA_OF_ASC_NODE":66.3473,"ARG_OF_PERICENTER":87.302,"MEAN_ANOMALY":272.881,"EPHEMERIS_TYPE":0,"CLASSIFICATION_TYPE":"U","NORAD_CAT_ID":47529,"ELEMENT_SET_NO":999,"REV_AT_EPOCH":16433,"BSTAR":0.00083028,"MEAN_MOTION_DOT":0.00037331,"MEAN_MOTION_DDOT":0},{"OBJECT_NAME":"FLOCK 4S-36","OBJECT_ID":"2021-006DW","EPOCH":"2024-01-03T03:23:54.705696","MEAN_MOTION":15.38017153,"ECCENTRICITY":0.0006293,"INCLINATION":97.3649,"RA_OF_ASC_NODE":66.8615,"ARG_OF_PERICENTER":98.7114,"MEAN_ANOMALY":261.4844,"EPHEMERIS_TYPE":0,"CLASSIFICATION_TYPE":"U","NORAD_CAT_ID":47530,"ELEMENT_SET_NO":999,"REV_AT_EPOCH":16431,"BSTAR":0.00057999,"MEAN_MOTION_DOT":0.00021658,"MEAN_MOTION_DDOT":0},{"OBJECT_NAME":"KEPLER-9 (ARTEMIS)","OBJECT_ID":"2021-006DX","EPOCH":"2024-01-02T22:27:58.085280","MEAN_MOTION":15.41556509,"ECCENTRICITY":0.0005388,"INCLINATION":97.3656,"RA_OF_ASC_NODE":65.0513,"ARG_OF_PERICENTER":100.015,"MEAN_ANOMALY":260.1705,"EPHEMERIS_TYPE":0,"CLASSIFICATION_TYPE":"U","NORAD_CAT_ID":47531,"ELEMENT_SET_NO":999,"REV_AT_EPOCH":16415,"BSTAR":0.0010827,"MEAN_MOTION_DOT":0.00045619,"MEAN_MOTION_DDOT":0},{"OBJECT_NAME":"YAOGAN-31 D","OBJECT_ID":"2021-007A","EPOCH":"2024-01-03T04:00:34.676928","MEAN_MOTION":13.45303813,"ECCENTRICITY":0.0096006,"INCLINATION":63.4072,"RA_OF_ASC_NODE":284.8959,"ARG_OF_PERICENTER":356.3572,"MEAN_ANOMALY":3.6744,"EPHEMERIS_TYPE":0,"CLASSIFICATION_TYPE":"U","NORAD_CAT_ID":47532,"ELEMENT_SET_NO":999,"REV_AT_EPOCH":14378,"BSTAR":0.00012126,"MEAN_MOTION_DOT":-1.6e-7,"MEAN_MOTION_DDOT":0},{"OBJECT_NAME":"YAOGAN-31 E","OBJECT_ID":"2021-007B","EPOCH":"2024-01-03T04:00:39.577536","MEAN_MOTION":13.45302903,"ECCENTRICITY":0.0096439,"INCLINATION":63.4066,"RA_OF_ASC_NODE":283.952,"ARG_OF_PERICENTER":356.4527,"MEAN_ANOMALY":3.5804,"EPHEMERIS_TYPE":0,"CLASSIFICATION_TYPE":"U","NORAD_CAT_ID":47533,"ELEMENT_SET_NO":999,"REV_AT_EPOCH":14379,"BSTAR":0.00013634,"MEAN_MOTION_DOT":-7.0e-8,"MEAN_MOTION_DDOT":0},{"OBJECT_NAME":"YAOGAN-31 F","OBJECT_ID":"2021-007E","EPOCH":"2024-01-03T04:00:20.036448","MEAN_MOTION":13.45303028,"ECCENTRICITY":0.009613,"INCLINATION":63.4067,"RA_OF_ASC_NODE":283.9666,"ARG_OF_PERICENTER":356.4464,"MEAN_ANOMALY":3.5868,"EPHEMERIS_TYPE":0,"CLASSIFICATION_TYPE":"U","NORAD_CAT_ID":47536,"ELEMENT_SET_NO":999,"REV_AT_EPOCH":14380,"BSTAR":0.00014904,"MEAN_MOTION_DOT":1.0e-8,"MEAN_MOTION_DDOT":0},{"OBJECT_NAME":"LEMUR-2-NOOBNOOB","OBJECT_ID":"2021-006DY","EPOCH":"2024-01-03T02:50:15.292320","MEAN_MOTION":15.505283,"ECCENTRICITY":0.000577,"INCLINATION":97.3643,"RA_OF_ASC_NODE":69.9646,"ARG_OF_PERICENTER":73.5833,"MEAN_ANOMALY":286.6052,"EPHEMERIS_TYPE":0,"CLASSIFICATION_TYPE":"U","NORAD_CAT_ID":47538,"ELEMENT_SET_NO":999,"REV_AT_EPOCH":16355,"BSTAR":0.0013363,"MEAN_MOTION_DOT":0.00076875,"MEAN_MOTION_DDOT":0},{"OBJECT_NAME":"FLOCK 4S-24","OBJECT_ID":"2021-006DZ","EPOCH":"2024-01-02T16:52:48.120672","MEAN_MOTION":15.37911824,"ECCENTRICITY":0.0007858,"INCLINATION":97.3582,"RA_OF_ASC_NODE":65.9159,"ARG_OF_PERICENTER":82.0289,"MEAN_ANOMALY":278.1847,"EPHEMERIS_TYPE":0,"CLASSIFICATION_TYPE":"U","NORAD_CAT_ID":47539,"ELEMENT_SET_NO":999,"REV_AT_EPOCH":16330,"BSTAR":0.00057532,"MEAN_MOTION_DOT":0.00021417,"MEAN_MOTION_DDOT":0},{"OBJECT_NAME":"FLOCK 4S-20","OBJECT_ID":"2021-006EA","EPOCH":"2024-01-02T21:41:51.926208","MEAN_MOTION":15.37750675,"ECCENTRICITY":0.0007701,"INCLINATION":97.3646,"RA_OF_ASC_NODE":66.9085,"ARG_OF_PERICENTER":83.0746,"MEAN_ANOMALY":277.1375,"EPHEMERIS_TYPE":0,"CLASSIFICATION_TYPE":"U","NORAD_CAT_ID":47540,"ELEMENT_SET_NO":999,"REV_AT_EPOCH":16240,"BSTAR":0.00054269,"MEAN_MOTION_DOT":0.00020088,"MEAN_MOTION_DDOT":0},{"OBJECT_NAME":"HIBER-4","OBJECT_ID":"2021-006EB","EPOCH":"2024-01-02T21:48:39.374784","MEAN_MOTION":15.3675055,"ECCENTRICITY":0.0008039,"INCLINATION":97.3528,"RA_OF_ASC_NODE":63.3049,"ARG_OF_PERICENTER":91.664,"MEAN_ANOMALY":268.5525,"EPHEMERIS_TYPE":0,"CLASSIFICATION_TYPE":"U","NORAD_CAT_ID":47541,"ELEMENT_SET_NO":999,"REV_AT_EPOCH":16319,"BSTAR":0.000832,"MEAN_MOTION_DOT":0.00029902,"MEAN_MOTION_DDOT":0},{"OBJECT_NAME":"FLOCK 4S-25","OBJECT_ID":"2021-006EC","EPOCH":"2024-01-03T03:07:59.852640","MEAN_MOTION":15.38463494,"ECCENTRICITY":0.0007845,"INCLINATION":97.3543,"RA_OF_ASC_NODE":66.095,"ARG_OF_PERICENTER":90.5157,"MEAN_ANOMALY":269.6987,"EPHEMERIS_TYPE":0,"CLASSIFICATION_TYPE":"U","NORAD_CAT_ID":47542,"ELEMENT_SET_NO":999,"REV_AT_EPOCH":16244,"BSTAR":0.00075097,"MEAN_MOTION_DOT":0.00028513,"MEAN_MOTION_DDOT":0},{"OBJECT_NAME":"FLOCK 4S-1","OBJECT_ID":"2021-006ED","EPOCH":"2024-01-02T20:57:56.943072","MEAN_MOTION":15.4005128,"ECCENTRICITY":0.0007777,"INCLINATION":97.3562,"RA_OF_ASC_NODE":66.168,"ARG_OF_PERICENTER":76.5612,"MEAN_ANOMALY":283.65,"EPHEMERIS_TYPE":0,"CLASSIFICATION_TYPE":"U","NORAD_CAT_ID":47543,"ELEMENT_SET_NO":999,"REV_AT_EPOCH":16242,"BSTAR":0.00062392,"MEAN_MOTION_DOT":0.00024925,"MEAN_MOTION_DDOT":0},{"OBJECT_NAME":"FLOCK 4S-30","OBJECT_ID":"2021-006EE","EPOCH":"2024-01-02T17:56:29.266944","MEAN_MOTION":15.37875415,"ECCENTRICITY":0.0005816,"INCLINATION":97.357,"RA_OF_ASC_NODE":65.4205,"ARG_OF_PERICENTER":93.4519,"MEAN_ANOMALY":266.7391,"EPHEMERIS_TYPE":0,"CLASSIFICATION_TYPE":"U","NORAD_CAT_ID":47544,"ELEMENT_SET_NO":999,"REV_AT_EPOCH":16425,"BSTAR":0.00055779,"MEAN_MOTION_DOT":0.00020726,"MEAN_MOTION_DDOT":0},{"OBJECT_NAME":"COSMOS 2549","OBJECT_ID":"2021-008A","EPOCH":"2024-01-03T02:59:03.502176","MEAN_MOTION":13.96677425,"ECCENTRICITY":0.0006086,"INCLINATION":67.1487,"RA_OF_ASC_NODE":3.7122,"ARG_OF_PERICENTER":272.4033,"MEAN_ANOMALY":87.6355,"EPHEMERIS_TYPE":0,"CLASSIFICATION_TYPE":"U","NORAD_CAT_ID":47546,"ELEMENT_SET_NO":999,"REV_AT_EPOCH":14867,"BSTAR":3.0761e-5,"MEAN_MOTION_DOT":-3.3e-7,"MEAN_MOTION_DDOT":0},{"OBJECT_NAME":"STARLINK-1782","OBJECT_ID":"2021-009A","EPOCH":"2024-01-03T02:54:50.352768","MEAN_MOTION":15.06402553,"ECCENTRICITY":0.0001694,"INCLINATION":53.0558,"RA_OF_ASC_NODE":347.5527,"ARG_OF_PERICENTER":99.626,"MEAN_ANOMALY":260.492,"EPHEMERIS_TYPE":0,"CLASSIFICATION_TYPE":"U","NORAD_CAT_ID":47548,"ELEMENT_SET_NO":999,"REV_AT_EPOCH":16147,"BSTAR":0.00019988,"MEAN_MOTION_DOT":2.697e-5,"MEAN_MOTION_DDOT":0},{"OBJECT_NAME":"STARLINK-1806","OBJECT_ID":"2021-009B","EPOCH":"2024-01-03T02:49:31.554048","MEAN_MOTION":15.06393078,"ECCENTRICITY":0.0002043,"INCLINATION":53.0555,"RA_OF_ASC_NODE":347.5682,"ARG_OF_PERICENTER":124.4929,"MEAN_ANOMALY":235.6254,"EPHEMERIS_TYPE":0,"CLASSIFICATION_TYPE":"U","NORAD_CAT_ID":47549,"ELEMENT_SET_NO":999,"REV_AT_EPOCH":16148,"BSTAR":5.8368e-7,"MEAN_MOTION_DOT":-2.73e-6,"MEAN_MOTION_DDOT":0}]
